      2.10          N: GNSS NAV DATA                        RINEX VERSION / TYPE
fic2rin                                 04/21/2023 00:17:45 PGM / RUN BY / DATE
                                                            END OF HEADER
30 23  4 20  2  0  0.0 -.521512702107D-03  .193267624127D-11  .000000000000D+00
     .680000000000D+02  .337500000000D+01  .461804950316D-08 -.226039820952D+01
     .484287738800D-07  .639428594150D-02  .130459666252D-04  .515361679459D+04
     .352800000000D+06 -.670552253723D-07 -.130291321374D+00 -.391155481339D-07
     .936019688040D+00  .113968750000D+03 -.260889380534D+01 -.792925885689D-08
    -.325013538118D-09  .100000000000D+01  .225800000000D+04  .000000000000D+00
     .240000000000D+01  .000000000000D+00  .372529029846D-08  .680000000000D+02
     .345600000000D+06  .400000000000D+01
15 23  4 20  2  0  0.0  .321865081787D-04  .341060513165D-11  .000000000000D+00
     .520000000000D+02 -.242187500000D+02  .589310261424D-08 -.263130011758D+00
    -.105425715446D-05  .148110184819D-01  .380538403988D-05  .515369900703D+04
     .352800000000D+06 -.111758708954D-06 -.132614671545D+01  .912696123123D-07
     .931753153293D+00  .288750000000D+03  .119027431333D+01 -.913038031699D-08
    -.340014162955D-09  .100000000000D+01  .225800000000D+04  .000000000000D+00
     .240000000000D+01  .000000000000D+00 -.107102096081D-07  .520000000000D+02
     .345600000000D+06  .400000000000D+01
28 23  4 20  2  0  0.0  .676671043038D-04  .579802872380D-11  .000000000000D+00
     .610000000000D+02  .188437500000D+02  .407909848225D-08  .257370049776D+01
     .983476638794D-06  .812557758763D-03  .133104622364D-04  .515367269325D+04
     .352800000000D+06  .186264514923D-07 -.174724747244D+00  .558793544769D-07
     .962028975865D+00  .124000000000D+03  .172066909193D+01 -.773889378456D-08
    -.449304429619D-09  .100000000000D+01  .225800000000D+04  .000000000000D+00
     .240000000000D+01  .000000000000D+00 -.139698386192D-08  .610000000000D+02
     .345600000000D+06  .400000000000D+01
20 23  4 20  2  0  0.0  .438070856035D-03 -.216004991671D-11  .000000000000D+00
     .830000000000D+02  .486875000000D+02  .500235122515D-08 -.687583060160D+00
     .260956585407D-05  .422930007335D-02  .943988561630D-05  .515379898834D+04
     .352800000000D+06  .111758708954D-07 -.240157991147D+01 -.130385160446D-07
     .947977242486D+00  .192187500000D+03 -.288567446808D+01 -.824105755884D-08
     .623597403906D-09  .100000000000D+01  .225800000000D+04  .000000000000D+00
     .240000000000D+01  .000000000000D+00 -.838190317154D-08  .830000000000D+02
     .345600000000D+06  .400000000000D+01
26 23  4 20  2  0  0.0  .241619069129D-03 -.227373675443D-12  .000000000000D+00
     .490000000000D+02  .137781250000D+03  .508485466175D-08  .250676230380D+01
     .708363950253D-05  .787599710748D-02  .650435686111D-05  .515367873383D+04
     .352800000000D+06 -.596046447754D-07  .840377053260D+00 -.912696123123D-07
     .934388787466D+00  .240062500000D+03  .464631029907D+00 -.850714007082D-08
     .499306512406D-09  .100000000000D+01  .225800000000D+04  .000000000000D+00
     .240000000000D+01  .000000000000D+00  .698491930962D-08  .490000000000D+02
     .345600000000D+06  .400000000000D+01
27 23  4 20  2  0  0.0  .550965778530D-04 -.841282599140D-11  .000000000000D+00
     .104000000000D+03 -.655625000000D+02  .478698511143D-08  .710431103438D+00
    -.350549817085D-05  .115688317455D-01  .231340527534D-05  .515366041183D+04
     .352800000000D+06 -.122934579849D-06  .195151191505D+01  .154599547386D-06
     .967743992616D+00  .340031250000D+03  .727104141709D+00 -.864750306036D-08
    -.314655963827D-09  .100000000000D+01  .225800000000D+04  .000000000000D+00
     .340000000000D+01  .000000000000D+00  .186264514923D-08  .104000000000D+03
     .345600000000D+06  .400000000000D+01
19 23  4 20  2  0  0.0  .305979512632D-03  .511590769747D-11  .000000000000D+00
     .990000000000D+02 -.865312500000D+02  .453233164695D-08  .281965076323D+01
    -.458769500256D-05  .930279958993D-02  .233575701714D-05  .515361526299D+04
     .352800000000D+06  .106170773506D-06  .206156310648D+01  .152736902237D-06
     .973499735543D+00  .336156250000D+03  .227447485346D+01 -.825177229087D-08
    -.235366946835D-09  .100000000000D+01  .225800000000D+04  .000000000000D+00
     .340000000000D+01  .000000000000D+00 -.153668224812D-07  .990000000000D+02
     .345600000000D+06  .400000000000D+01
13 23  4 20  2  0  0.0  .508282799274D-03  .557065504836D-11  .000000000000D+00
     .980000000000D+02 -.499687500000D+02  .477448459073D-08  .285609592786D+00
    -.242702662945D-05  .686136307195D-02  .578723847866D-05  .515366415596D+04
     .352800000000D+06 -.279396772385D-07 -.104896133935D+01  .409781932831D-07
     .969390018300D+00  .269406250000D+03  .913939038921D+00 -.836463413487D-08
    -.623597403906D-09  .100000000000D+01  .225800000000D+04  .000000000000D+00
     .340000000000D+01  .000000000000D+00 -.111758708954D-07  .980000000000D+02
     .345600000000D+06  .400000000000D+01
25 23  4 20  2  0  0.0  .436895992607D-03  .284217094304D-11  .000000000000D+00
     .790000000000D+02  .126875000000D+03  .454376069444D-08 -.304524342791D+01
     .654160976410D-05  .111439133761D-01  .543147325516D-05  .515375049591D+04
     .352800000000D+06  .633299350739D-07  .895372793014D+00 -.745058059692D-08
     .953555407639D+00  .270281250000D+03  .104885201109D+01 -.809176562595D-08
     .498592196938D-09  .100000000000D+01  .225800000000D+04  .000000000000D+00
     .240000000000D+01  .000000000000D+00  .558793544769D-08  .790000000000D+02
     .345600000000D+06  .400000000000D+01
18 23  4 20  2  0  0.0 -.231710728258D-03 -.164845914696D-10  .000000000000D+00
     .100000000000D+01 -.719687500000D+02  .399480925698D-08 -.135770323649D+01
    -.393763184547D-05  .309317756910D-02  .128541141748D-04  .515368378830D+04
     .352800000000D+06  .391155481339D-07  .302068251530D+01 -.111758708954D-07
     .974009552253D+00  .137437500000D+03  .314092487245D+01 -.772353600199D-08
     .639312344211D-10  .100000000000D+01  .225800000000D+04  .000000000000D+00
     .240000000000D+01  .000000000000D+00 -.838190317154D-08  .257000000000D+03
     .345600000000D+06  .400000000000D+01
11 23  4 20  2  0  0.0 -.168345868587D-03 -.128466126625D-10  .000000000000D+00
     .170000000000D+02 -.683125000000D+02  .419267464173D-08  .549530839880D-01
    -.354461371899D-05  .770505634136D-03  .122860074043D-04  .515374105072D+04
     .352800000000D+06 -.204890966415D-07  .305296701363D+01  .149011611938D-07
     .965527743409D+00  .148218750000D+03 -.279549083939D+01 -.779603902203D-08
     .310727228751D-10  .100000000000D+01  .225800000000D+04  .000000000000D+00
     .240000000000D+01  .000000000000D+00 -.884756445885D-08  .785000000000D+03
     .345600000000D+06  .400000000000D+01
23 23  4 20  2  0  0.0  .180555507541D-04  .261479726760D-11  .000000000000D+00
     .530000000000D+02  .602812500000D+02  .451483091797D-08 -.240617200985D+01
     .311620533466D-05  .307784217875D-02  .843778252602D-05  .515364930725D+04
     .352800000000D+06 -.391155481339D-07 -.226342192513D+01 -.372529029846D-07
     .973213897442D+00  .224000000000D+03 -.309011713654D+01 -.799247577584D-08
     .607882463602D-09  .100000000000D+01  .225800000000D+04  .000000000000D+00
     .240000000000D+01  .000000000000D+00 -.838190317154D-08  .565000000000D+03
     .345600000000D+06  .400000000000D+01
14 23  4 20  2  0  0.0  .304724089801D-04  .118234311230D-10  .000000000000D+00
     .168000000000D+03  .120875000000D+03  .475198365348D-08 -.286161131920D+01
     .641122460365D-05  .299401115626D-02  .615976750851D-05  .515367653656D+04
     .352800000000D+06 -.353902578354D-07  .939181381703D+00 -.242143869400D-07
     .949195096917D+00  .255687500000D+03 -.305669585723D+01 -.833106130786D-08
     .534307970357D-09  .100000000000D+01  .225800000000D+04  .000000000000D+00
     .240000000000D+01  .000000000000D+00 -.791624188423D-08  .936000000000D+03
     .345600000000D+06  .400000000000D+01
22 23  4 20  2  0  0.0  .467218924314D-03  .670752342558D-11  .000000000000D+00
     .290000000000D+02 -.405937500000D+02  .501306595718D-08  .483807881729D+00
    -.201351940632D-05  .142787825316D-01  .597350299358D-05  .515361094093D+04
     .352800000000D+06 -.186264514923D-06 -.110376236324D+01  .260770320892D-07
     .962200112411D+00  .270187500000D+03 -.181104640805D+01 -.856892835883D-08
    -.662527596934D-09  .100000000000D+01  .225800000000D+04  .000000000000D+00
     .240000000000D+01  .630000000000D+02 -.791624188423D-08  .290000000000D+02
     .345600000000D+06  .400000000000D+01
21 23  4 20  2  0  0.0  .154159497470D-03 -.113686837722D-12  .000000000000D+00
     .103000000000D+03 -.108031250000D+03  .444268505567D-08  .640556304781D+00
    -.590831041336D-05  .247306497768D-01  .114627182484D-04  .515363667488D+04
     .352800000000D+06  .175088644028D-06  .291660668737D+01 -.461935997009D-06
     .961952197536D+00  .164906250000D+03 -.774364447570D+00 -.828570227561D-08
    -.810748056625D-10  .100000000000D+01  .225800000000D+04  .000000000000D+00
     .485000000000D+01  .000000000000D+00 -.102445483208D-07  .103000000000D+03
     .345600000000D+06  .400000000000D+01
19 23  4 20  1 59 44.0  .305979512632D-03  .511590769747D-11  .000000000000D+00
     .200000000000D+01 -.865312500000D+02  .453233164695D-08  .281731694076D+01
    -.458769500256D-05  .930279970635D-02  .233575701714D-05  .515361527443D+04
     .352784000000D+06  .106170773506D-06  .206156323668D+01  .152736902237D-06
     .973499747246D+00  .336156250000D+03  .227447479202D+01 -.825212944860D-08
    -.235366946835D-09  .100000000000D+01  .225800000000D+04  .000000000000D+00
     .240000000000D+01  .000000000000D+00 -.153668224812D-07  .200000000000D+01
     .345900000000D+06  .400000000000D+01
